[{"OBJECT_NAME":"STARLINK-5582","OBJECT_ID":"2023-078L","EPOCH":"2026-03-09T22:42:25.553376","MEAN_MOTION":14.98320574,"ECCENTRICITY":0.00027923,"INCLINATION":70.0014,"RA_OF_ASC_NODE":344.0184,"ARG_OF_PERICENTER":266.0709,"MEAN_ANOMALY":94.0131,"EPHEMERIS_TYPE":0,"CLASSIFICATION_TYPE":"U","NORAD_CAT_ID":56777,"ELEMENT_SET_NO":999,"REV_AT_EPOCH":15271,"BSTAR":-0.00012872112,"MEAN_MOTION_DOT":-1.628e-5,"MEAN_MOTION_DDOT":0},{"OBJECT_NAME":"ORBCOMM FM02","OBJECT_ID":"1995-017B","EPOCH":"2026-03-09T15:14:02.878656","MEAN_MOTION":14.96738099,"ECCENTRICITY":0.0008676,"INCLINATION":69.9626,"RA_OF_ASC_NODE":148.0696,"ARG_OF_PERICENTER":276.2558,"MEAN_ANOMALY":83.7611,"EPHEMERIS_TYPE":0,"CLASSIFICATION_TYPE":"U","NORAD_CAT_ID":23546,"ELEMENT_SET_NO":999,"REV_AT_EPOCH":65179,"BSTAR":0.00080978,"MEAN_MOTION_DOT":9.2e-5,"MEAN_MOTION_DDOT":0}]
